NORAD_CAT_ID,OBJECT_NAME,OBJECT_TYPE,EPOCH,MEAN_MOTION,ECCENTRICITY,INCLINATION,RA_OF_ASC_NODE,ARG_OF_PERICENTER,MEAN_ANOMALY,BSTAR,MEAN_MOTION_DOT,MEAN_MOTION_DDOT,TLE_LINE0,TLE_LINE1,TLE_LINE2,SEMIMAJOR_AXIS,PERIOD,APOGEE,PERIGEE,DECAYED
53994.0,STARLINK-5125,PAYLOAD,2024-04-23 02:25:23,15.08839323,0.0001368,53.2182,51.7275,126.4242,233.6877,0.00026703,3.964e-05,0.0,0 STARLINK-5125,1 53994U 22125AG  24114.10096128  .00003964  00000-0  26703-3 0  9994,2 53994  53.2182  51.7275 0001368 126.4242 233.6877 15.08839323 86034,6917.882,95.438,540.694,538.801,0.0
53994.0,STARLINK-5125,PAYLOAD,2024-04-23 05:36:09,15.08841513,0.000124,53.2176,51.132,127.2432,232.8673,0.00026636,3.954e-05,0.0,0 STARLINK-5125,1 53994U 22125AG  24114.23343993  .00003954  00000-0  26636-3 0  9997,2 53994  53.2176  51.1320 0001240 127.2432 232.8673 15.08841513 85983,6917.876,95.437,540.599,538.883,0.0
53994.0,STARLINK-5125,PAYLOAD,2024-04-24 02:16:09,15.08852073,0.0001299,53.2179,47.262,104.1933,255.9204,0.00017477,2.496e-05,0.0,0 STARLINK-5125,1 53994U 22125AG  24115.09455424  .00002496  00000-0  17477-3 0  9998,2 53994  53.2179  47.2620 0001299 104.1933 255.9204 15.08852073 86114,6917.843,95.437,540.607,538.81,0.0
53994.0,STARLINK-5125,PAYLOAD,2024-04-25 00:31:32,15.08854589,0.0001382,53.218,43.0985,51.5878,308.5238,5.0307e-05,5.13e-06,0.0,0 STARLINK-5125,1 53994U 22125AG  24116.02189897  .00000513  00000-0  50307-4 0  9998,2 53994  53.2180  43.0985 0001382  51.5878 308.5238 15.08854589 86329,6917.836,95.437,540.657,538.745,0.0
53994.0,STARLINK-5125,PAYLOAD,2024-04-25 22:46:57,15.08817508,0.0001149,53.2182,38.9437,83.1406,276.9717,-0.00046399,-7.66e-05,0.0,0 STARLINK-5125,1 53994U 22125AG  24116.94927791 -.00007660  00000-0 -46399-3 0  9999,2 53994  53.2182  38.9437 0001149  83.1406 276.9717 15.08817508 86392,6917.949,95.439,540.609,539.019,0.0
53994.0,STARLINK-5125,PAYLOAD,2024-04-26 03:33:06,15.08834669,0.0001362,53.2195,38.0497,89.4631,270.6517,0.00030665,4.595e-05,0.0,0 STARLINK-5125,1 53994U 22125AG  24117.14799751  .00004595  00000-0  30665-3 0  9996,2 53994  53.2195  38.0497 0001362  89.4631 270.6517 15.08834669 86496,6917.897,95.438,540.704,538.819,0.0
53994.0,STARLINK-5125,PAYLOAD,2024-04-26 11:30:02,15.08866654,0.0001138,53.2188,36.5676,95.8143,264.2979,0.0021998,0.00034921,0.0,0 STARLINK-5125,1 53994U 22125AG  24117.47919696  .00034921  00000-0  21998-2 0  9998,2 53994  53.2188  36.5676 0001138  95.8143 264.2979 15.08866654 86546,6917.799,95.436,540.451,538.877,0.0
53994.0,STARLINK-5125,PAYLOAD,2024-04-27 03:23:54,15.08855093,0.0002246,53.2176,33.5899,83.8026,276.3222,0.0015491,0.00024462,0.0,0 STARLINK-5125,1 53994U 22125AG  24118.14160098  .00024462  00000-0  15491-2 0  9997,2 53994  53.2176  33.5899 0002246  83.8026 276.3222 15.08855093 86646,6917.834,95.437,541.253,538.146,0.0
53994.0,STARLINK-5125,PAYLOAD,2024-04-27 11:20:49,15.08893713,0.0002152,53.2171,32.1012,62.2135,297.9075,0.002425,0.00038575,0.0,0 STARLINK-5125,1 53994U 22125AG  24118.47279135  .00038575  00000-0  24250-2 0  9999,2 53994  53.2171  32.1012 0002152  62.2135 297.9075 15.08893713 86692,6917.716,95.434,541.07,538.093,0.0
53994.0,STARLINK-5125,PAYLOAD,2024-04-27 17:42:22,15.08833047,0.0001984,53.217,30.9151,70.0395,290.0811,-0.0010808,-0.00017445,0.0,0 STARLINK-5125,1 53994U 22125AG  24118.73775533 -.00017445  00000-0 -10808-2 0  9990,2 53994  53.2170  30.9151 0001984  70.0395 290.0811 15.08833047 86739,6917.902,95.438,541.139,538.394,0.0
53994.0,STARLINK-5125,PAYLOAD,2024-04-27 22:28:31,15.0882526,0.0001452,53.2172,30.0223,75.8043,284.311,0.00017637,2.519e-05,0.0,0 STARLINK-5125,1 53994U 22125AG  24118.93647897  .00002519  00000-0  17637-3 0  9995,2 53994  53.2172  30.0223 0001452  75.8043 284.3110 15.08825260 86696,6917.925,95.438,540.795,538.786,0.0
53994.0,STARLINK-5125,PAYLOAD,2024-04-28 11:11:37,15.08842111,0.0001579,53.2168,27.6432,72.5649,287.5516,0.0022153,0.00035147,0.0,0 STARLINK-5125,1 53994U 22125AG  24119.46640765  .00035147  00000-0  22153-2 0  9992,2 53994  53.2168  27.6432 0001579  72.5649 287.5516 15.08842111 86847,6917.874,95.437,540.831,538.647,0.0
53994.0,STARLINK-5125,PAYLOAD,2024-04-28 22:19:19,15.08845802,0.0002091,53.2171,25.5614,80.8546,279.2682,0.0013749,0.00021665,0.0,0 STARLINK-5125,1 53994U 22125AG  24119.93009097  .00021665  00000-0  13749-2 0  9992,2 53994  53.2171  25.5614 0002091  80.8546 279.2682 15.08845802 86840,6917.863,95.437,541.174,538.281,0.0
53994.0,STARLINK-5125,PAYLOAD,2024-04-28 23:54:42,15.0884083,0.0001611,53.2182,25.2615,82.5715,277.5461,0.00081666,0.00012733,0.0,0 STARLINK-5125,1 53994U 22125AG  24119.99632940  .00012733  00000-0  81666-3 0  9997,2 53994  53.2182  25.2615 0001611  82.5715 277.5461 15.08840830 86925,6917.878,95.438,540.857,538.628,0.0
53994.0,STARLINK-5125,PAYLOAD,2024-04-29 11:02:24,15.08854256,0.0001839,53.2188,23.183,75.6376,284.482,0.0009097,0.00014225,0.0,0 STARLINK-5125,1 53994U 22125AG  24120.46000769  .00014225  00000-0  90970-3 0  9995,2 53994  53.2188  23.1830 0001839  75.6376 284.4820 15.08854256 86928,6917.837,95.437,540.974,538.43,0.0
53994.0,STARLINK-5125,PAYLOAD,2024-04-29 22:10:06,15.08848224,0.0003244,53.2178,21.1014,79.4182,280.7175,0.00065419,0.00010141,0.0,0 STARLINK-5125,1 53994U 22125AG  24120.92369158  .00010141  00000-0  65419-3 0  9999,2 53994  53.2178  21.1014 0003244  79.4182 280.7175 15.08848224 86995,6917.855,95.437,541.964,537.476,0.0
53994.0,STARLINK-5125,PAYLOAD,2024-04-30 02:56:15,15.08849716,0.0001653,53.2176,20.2074,81.5747,278.5432,0.00067546,0.00010481,0.0,0 STARLINK-5125,1 53994U 22125AG  24121.12240605  .00010481  00000-0  67546-3 0  9997,2 53994  53.2176  20.2074 0001653  81.5747 278.5432 15.08849716 87092,6917.851,95.437,540.859,538.572,0.0
53994.0,STARLINK-5125,PAYLOAD,2024-04-30 10:53:11,15.08852192,0.0001725,53.218,18.7201,81.2657,278.8531,0.00069112,0.00010732,0.0,0 STARLINK-5125,1 53994U 22125AG  24121.45360466  .00010732  00000-0  69112-3 0  9991,2 53994  53.2180  18.7201 0001725  81.2657 278.8531 15.08852192 87071,6917.843,95.437,540.901,538.515,0.0
53994.0,STARLINK-5125,PAYLOAD,2024-04-30 20:25:30,15.08849338,0.0001932,53.2185,16.935,102.5259,257.5949,0.00056803,8.766e-05,0.0,0 STARLINK-5125,1 53994U 22125AG  24121.85104492  .00008766  00000-0  56803-3 0  9997,2 53994  53.2185  16.9350 0001932 102.5259 257.5949 15.08849338 87206,6917.852,95.437,541.053,538.38,0.0
53994.0,STARLINK-5125,PAYLOAD,2024-04-30 22:00:53,15.08848944,0.0001795,53.2183,16.638,107.9428,252.176,0.00057759,8.918e-05,0.0,0 STARLINK-5125,1 53994U 22125AG  24121.91728458  .00008918  00000-0  57759-3 0  9998,2 53994  53.2183  16.6380 0001795 107.9428 252.1760 15.08848944 87145,6917.853,95.437,540.96,538.476,0.0
53994.0,STARLINK-5125,PAYLOAD,2024-05-01 02:47:02,15.08848752,0.0001602,53.2178,15.747,81.2194,278.898,0.00076491,0.00011909,0.0,0 STARLINK-5125,1 53994U 22125AG  24122.11600588  .00011909  00000-0  76491-3 0  9992,2 53994  53.2178  15.7470 0001602  81.2194 278.8980 15.08848752 87179,6917.854,95.437,540.827,538.61,0.0
53994.0,STARLINK-5125,PAYLOAD,2024-05-02 02:37:49,15.08857675,0.0001579,53.2184,11.2859,84.098,276.0192,0.00059682,9.228e-05,0.0,0 STARLINK-5125,1 53994U 22125AG  24123.10960017  .00009228  00000-0  59682-3 0  9992,2 53994  53.2184  11.2859 0001579  84.0980 276.0192 15.08857675 87398,6917.826,95.436,540.784,538.599,0.0
53994.0,STARLINK-5125,PAYLOAD,2024-05-02 15:20:53,15.08864534,0.0001472,53.2175,8.9086,87.6081,272.5079,0.00055906,8.627e-05,0.0,0 STARLINK-5125,1 53994U 22125AG  24123.63951254  .00008627  00000-0  55906-3 0  9990,2 53994  53.2175   8.9086 0001472  87.6081 272.5079 15.08864534 87405,6917.805,95.436,540.689,538.652,0.0
53994.0,STARLINK-5125,PAYLOAD,2024-05-02 20:07:03,15.0884022,0.0001349,53.218,8.0153,93.4991,266.6156,-7.4118e-05,-1.467e-05,0.0,0 STARLINK-5125,1 53994U 22125AG  24123.83824021 -.00001467  00000-0 -74118-4 0  9997,2 53994  53.2180   8.0153 0001349  93.4991 266.6156 15.08840220 87502,6917.88,95.438,540.678,538.811,0.0
53994.0,STARLINK-5125,PAYLOAD,2024-05-03 08:50:08,15.08865499,0.0001219,53.2174,5.6382,87.0273,273.0858,0.0012744,0.00020066,0.0,0 STARLINK-5125,1 53994U 22125AG  24124.36815411  .00020066  00000-0  12744-2 0  9998,2 53994  53.2174   5.6382 0001219  87.0273 273.0858 15.08865499 87584,6917.802,95.436,540.511,538.824,0.0
53994.0,STARLINK-5125,PAYLOAD,2024-05-03 19:57:51,15.08817401,0.0001251,53.2166,3.5566,102.7972,257.316,-0.00025151,-4.286e-05,0.0,0 STARLINK-5125,1 53994U 22125AG  24124.83184436 -.00004286  00000-0 -25151-3 0  9991,2 53994  53.2166   3.5566 0001251 102.7972 257.3160 15.08817401 87652,6917.949,95.439,540.68,538.949,0.0
53994.0,STARLINK-5125,PAYLOAD,2024-05-03 23:08:37,15.08812668,0.0001369,53.218,2.9635,111.793,248.3208,-0.00035082,-5.863e-05,0.0,0 STARLINK-5125,1 53994U 22125AG  24124.96432711 -.00005863  00000-0 -35082-3 0  9993,2 53994  53.2180   2.9635 0001369 111.7930 248.3208 15.08812668 87600,6917.964,95.439,540.776,538.882,0.0
53994.0,STARLINK-5125,PAYLOAD,2024-05-04 21:24:02,15.08845641,0.0001108,53.2168,358.7988,107.3094,252.8019,0.0012317,0.00019372,0.0,0 STARLINK-5125,1 53994U 22125AG  24125.89169495  .00019372  00000-0  12317-2 0  9995,2 53994  53.2168 358.7988 0001108 107.3094 252.8019 15.08845641 87812,6917.863,95.437,540.495,538.962,0.0
53994.0,STARLINK-5125,PAYLOAD,2024-05-04 22:59:25,15.08848809,0.0001068,53.2166,358.5019,105.8566,254.2544,0.0014309,0.00022564,0.0,0 STARLINK-5125,1 53994U 22125AG  24125.95793477  .00022564  00000-0  14309-2 0  9995,2 53994  53.2166 358.5019 0001068 105.8566 254.2544 15.08848809 87756,6917.853,95.437,540.457,538.98,0.0
53994.0,STARLINK-5125,PAYLOAD,2024-05-05 21:14:49,15.08854008,0.0001025,53.2163,354.3383,96.2251,263.8858,0.00090791,0.00014196,0.0,0 STARLINK-5125,1 53994U 22125AG  24126.88529172  .00014196  00000-0  90791-3 0  9999,2 53994  53.2163 354.3383 0001025  96.2251 263.8858 15.08854008 87963,6917.838,95.437,540.412,538.993,0.0
